{
    "links": {
        "self": "http://www.neowsapp.com/rest/v1/neo/3387612?api_key=iIulBulltgU6a56xZRHN4H3l9WmuAYTsLGpBGhQ2"
    },
    "id": "3387612",
    "neo_reference_id": "3387612",
    "name": "(2007 TJ15)",
    "designation": "2007 TJ15",
    "nasa_jpl_url": "http://ssd.jpl.nasa.gov/sbdb.cgi?sstr=3387612",
    "absolute_magnitude_h": 25.3,
    "estimated_diameter": {
        "kilometers": {
            "estimated_diameter_min": 0.0231502122,
            "estimated_diameter_max": 0.0517654482
        },
        "meters": {
            "estimated_diameter_min": 23.150212221,
            "estimated_diameter_max": 51.7654482198
        },
        "miles": {
            "estimated_diameter_min": 0.0143848705,
            "estimated_diameter_max": 0.0321655483
        },
        "feet": {
            "estimated_diameter_min": 75.9521422633,
            "estimated_diameter_max": 169.8341531374
        }
    },
    "is_potentially_hazardous_asteroid": false,
    "close_approach_data": [
        {
            "close_approach_date": "2007-09-15",
            "close_approach_date_full": "2007-Sep-15 15:03",
            "epoch_date_close_approach": 1189868580000,
            "relative_velocity": {
                "kilometers_per_second": "5.4690638754",
                "kilometers_per_hour": "19688.629951299",
                "miles_per_hour": "12233.7489827946"
            },
            "miss_distance": {
                "astronomical": "0.0784176983",
                "lunar": "30.5044846387",
                "kilometers": "11731120.635982621",
                "miles": "7289380.3501413298"
            },
            "orbiting_body": "Earth"
        }
    ],
    "orbital_data": {
        "orbit_id": "6",
        "orbit_determination_date": "2017-04-06 09:05:49",
        "first_observation_date": "2007-10-08",
        "last_observation_date": "2007-10-09",
        "data_arc_in_days": 1,
        "observations_used": 12,
        "orbit_uncertainty": "9",
        "minimum_orbit_intersection": ".0768007",
        "jupiter_tisserand_invariant": "3.630",
        "epoch_osculation": "2454382.5",
        "eccentricity": ".4765757273357711",
        "semi_major_axis": "2.061810919536555",
        "inclination": "2.274422301455398",
        "ascending_node_longitude": "26.23718573680249",
        "orbital_period": "1081.36343390909",
        "perihelion_distance": "1.079201880929586",
        "perihelion_argument": "323.3666084620984",
        "aphelion_distance": "3.044419958143524",
        "perihelion_time": "2454357.291360710924",
        "mean_anomaly": "8.392285016759963",
        "mean_motion": ".3329130509791818",
        "equinox": "J2000",
        "orbit_class": {
            "orbit_class_type": "AMO",
            "orbit_class_description": "Near-Earth asteroid orbits similar to that of 1221 Amor",
            "orbit_class_range": "1.017 AU < q (perihelion) < 1.3 AU"
        }
    },
    "is_sentry_object": false
}